STARLINK-2163
1 47749U 21017AD  26060.50074962  .00002923  00000-0  10802-3 0  9999
2 47749  53.1608 232.3388 0001328  84.7009 275.4143 15.31042734276727
STARLINK-2163
1 47749U 21017AD  26060.76185926  .00003768  00000-0  13577-3 0  9990
2 47749  53.1608 231.1242 0001344  86.9014 273.2141 15.31050588276765
STARLINK-2163
1 47749U 21017AD  26060.89241921  .00006217  00000-0  21615-3 0  9996
2 47749  53.1583 230.5166 0001330  86.1139 274.0014 15.31054237276785
STARLINK-2163
1 47749U 21017AD  26060.89241921  .00006217  00000-0  21615-3 0  9996
2 47749  53.1583 230.5166 0001330  86.1139 274.0014 15.31054237276785
STARLINK-2163
1 47749U 21017AD  26061.47994417 -.00002120  00000-0 -57883-4 0  9994
2 47749  53.1589 227.7848 0000656  42.7899 317.3153 15.31022248276879
STARLINK-2163
1 47749U 21017AD  26061.61049896  .00000967  00000-0  43747-4 0  9991
2 47749  53.1585 227.1770 0001226  93.9700 266.1441 15.31033194276891
STARLINK-2163
1 47749U 21017AD  26061.67577620  .00001166  00000-0  50267-4 0  9995
2 47749  53.1587 226.8736 0001083  90.2041 269.9085 15.31035858276906
STARLINK-2163
1 47749U 21017AD  26061.67577621  .00001166  00000-0  50267-4 0  9996
2 47749  53.1587 226.8736 0001083  90.2041 269.9085 15.31035858276906
STARLINK-2163
1 47749U 21017AD  26062.72023186  .00017487  00000-0  58542-3 0  9991
2 47749  53.1598 222.0156 0000826  89.2742 270.8354 15.31060084277069
STARLINK-2163
1 47749U 21017AD  26062.72023187  .00017487  00000-0  58542-3 0  9992
2 47749  53.1598 222.0156 0000826  89.2742 270.8354 15.31060084277069
STARLINK-2163
1 47749U 21017AD  26064.02582160  .00015211  00000-0  51127-3 0  9993
2 47749  53.1617 215.9400 0001039  80.9220 279.1899 15.31038960277266
STARLINK-2163
1 47749U 21017AD  26064.02582160  .00015211  00000-0  51127-3 0  9993
2 47749  53.1617 215.9400 0001039  80.9220 279.1899 15.31038960277266
STARLINK-2163
1 47749U 21017AD  26064.54791701  .00109900  00000-0  35371-2 0  9994
2 47749  53.1611 213.5145 0002116 221.7238 138.3602 15.31373712277345
STARLINK-2163
1 47749U 21017AD  26064.54791702  .00109900  00000-0  35371-2 0  9995
2 47749  53.1611 213.5145 0002116 221.7238 138.3602 15.31373712277345
STARLINK-2163
1 47749U 21017AD  26064.67858223 -.00354156  00000-0 -12315-1 0  9990
2 47749  53.1611 212.7929 0002092 140.2461 219.8694 15.30730440277364
STARLINK-2163
1 47749U 21017AD  26065.78837178  .00072602  00000-0  23817-2 0  9990
2 47749  53.1617 207.7465 0001388 137.0377 223.0733 15.30976106277537
STARLINK-2163
1 47749U 21017AD  26066.11476174  .00032253  00000-0  10690-2 0  9996
2 47749  53.1617 206.2298 0001246  94.6468 265.4676 15.31017340277585
STARLINK-2163
1 47749U 21017AD  26066.11476175  .00032253  00000-0  10690-2 0  9997
2 47749  53.1617 206.2298 0001246  94.6468 265.4676 15.31017340277585
STARLINK-2163
1 47749U 21017AD  26066.37587231  .00022359  00000-0  74508-3 0  9996
2 47749  53.1618 205.0151 0001241  74.0957 286.0181 15.31045252277629
STARLINK-2163
1 47749U 21017AD  26066.37587232  .00022359  00000-0  74508-3 0  9997
2 47749  53.1618 205.0151 0001241  74.0957 286.0181 15.31045252277629
STARLINK-2163
1 47749U 21017AD  26067.55088918 -.00000434  00000-0 -23409-5 0  9993
2 47749  53.1617 199.5505 0001344  50.2853 309.8267 15.31023895277801
STARLINK-2163
1 47749U 21017AD  26067.61616834  .00002539  00000-0  95474-4 0  9990
2 47749  53.1617 199.2469 0001255  61.9554 298.1574 15.31022816277819
STARLINK-2163
1 47749U 21017AD  26067.68144916  .00005707  00000-0  19961-3 0  9990
2 47749  53.1617 198.9436 0001360  54.8778 305.2351 15.31022313277821
STARLINK-2163
1 47749U 21017AD  26068.53008096  .00010847  00000-0  36825-3 0  9992
2 47749  53.1614 194.9971 0001552  53.2577 306.8566 15.31034927277954
STARLINK-2163
1 47749U 21017AD  26068.59535979  .00011218  00000-0  38040-3 0  9997
2 47749  53.1606 194.6933 0001691  50.3296 309.7854 15.31037251277966
STARLINK-2163
1 47749U 21017AD  26068.66063786  .00011681  00000-0  39557-3 0  9995
2 47749  53.1608 194.3896 0001595  55.6848 304.4304 15.31039674277971
STARLINK-2163
1 47749U 21017AD  26068.66063787  .00011681  00000-0  39557-3 0  9996
2 47749  53.1608 194.3896 0001595  55.6848 304.4304 15.31039674277971
STARLINK-2163
1 47749U 21017AD  26069.31343011  .00003391  00000-0  12343-3 0  9993
2 47749  53.1609 191.3556 0001558  66.8993 293.2172 15.31034188278071
STARLINK-2163
1 47749U 21017AD  26069.50926800  .00003234  00000-0  11828-3 0  9990
2 47749  53.1605 190.4422 0001292  77.2179 282.8966 15.31028949278103
STARLINK-2163
1 47749U 21017AD  26069.70510522  .00002326  00000-0  88450-4 0  9999
2 47749  53.1600 189.5313 0001251  81.7055 278.4087 15.31030061278130
STARLINK-2163
1 47749U 21017AD  26069.70510522  .00002326  00000-0  88450-4 0  9999
2 47749  53.1600 189.5313 0001251  81.7055 278.4087 15.31030061278130
STARLINK-2163
1 47749U 21017AD  26070.29261346  .00005894  00000-0  20565-3 0  9997
2 47749  53.1596 186.7985 0001099  91.1066 269.0061 15.31038874278223
STARLINK-2163
1 47749U 21017AD  26070.48844740  .00010295  00000-0  35001-3 0  9995
2 47749  53.1594 185.8889 0001192  87.5825 272.5312 15.31048814278256
STARLINK-2163
1 47749U 21017AD  26070.55363188  .00178586  00000-0  56831-2 0  9996
2 47749  53.1589 185.5846 0002739 340.8353  19.2545 15.31399241278267
STARLINK-2163
1 47749U 21017AD  26070.55363188  .00178587  00000-0  56831-2 0  9997
2 47749  53.1589 185.5846 0002739 340.8353  19.2545 15.31399241278267
STARLINK-2163
1 47749U 21017AD  26071.27179990 -.00014672  00000-0 -47217-3 0  9998
2 47749  53.1583 182.2457 0002649 330.6623  29.4229 15.30999040278376
STARLINK-2163
1 47749U 21017AD  26071.53291060 -.00002718  00000-0 -77518-4 0  9996
2 47749  53.1591 181.0321 0001605 109.3973 250.7202 15.31030163278410
STARLINK-2163
1 47749U 21017AD  26071.59819272 -.00001268  00000-0 -29793-4 0  9994
2 47749  53.1590 180.7284 0001321  95.3012 264.8140 15.31027899278426
STARLINK-2163
1 47749U 21017AD  26071.72875311 -.00000340  00000-0  75142-6 0  9995
2 47749  53.1598 180.1216 0001348  95.1114 265.0041 15.31026616278444
STARLINK-2163
1 47749U 21017AD  26071.72875312 -.00000340  00000-0  75142-6 0  9996
2 47749  53.1598 180.1216 0001348  95.1114 265.0041 15.31026616278444
STARLINK-2163
1 47749U 21017AD  26072.31626467 -.00000091  00000-0  89254-5 0  9998
2 47749  53.1609 177.3891 0001282  92.5919 267.5229 15.31033448278531
STARLINK-2163
1 47749U 21017AD  26073.55655711  .00003312  00000-0  12081-3 0  9999
2 47749  53.1594 171.6216 0001112  79.3897 280.7230 15.31039064278722
STARLINK-2163
1 47749U 21017AD  26074.53574181  .00000484  00000-0  27858-4 0  9995
2 47749  53.1624 167.0695 0001513  88.7208 271.3967 15.31039209278871
STARLINK-2163
1 47749U 21017AD  26074.66629722  .00000766  00000-0  37124-4 0  9991
2 47749  53.1618 166.4556 0001299  80.3799 279.7349 15.31041025278894
STARLINK-2163
1 47749U 21017AD  26075.51493473 -.00001678  00000-0 -43291-4 0  9995
2 47749  53.1622 162.5054 0001261  95.4544 264.6601 15.31029959279025
STARLINK-2163
1 47749U 21017AD  26076.62467067  .00000888  00000-0  41135-4 0  9993
2 47749  53.1615 157.3488 0001260  87.8767 272.2379 15.31039847279193
STARLINK-2163
1 47749U 21017AD  26076.95093704  .00017248  00000-0  57571-3 0  9990
2 47749  53.1617 155.8313 0000837 225.5197 134.5736 15.31167224279246
STARLINK-2163
1 47749U 21017AD  26077.53780912  .00100436  00000-0  31952-2 0  9995
2 47749  53.1618 153.0949 0001087  69.2086 290.9032 15.31798311279333
STARLINK-2163
1 47749U 21017AD  26077.60297382  .00115433  00000-0  36509-2 0  9993
2 47749  53.1600 152.7902 0000905  96.8974 263.2131 15.31905620279346
STARLINK-2163
1 47749U 21017AD  26077.60297382  .00115433  00000-0  36509-2 0  9993
2 47749  53.1600 152.7902 0000905  96.8974 263.2131 15.31905620279346
STARLINK-2163
1 47749U 21017AD  26077.92898998  .00138724  00000-0  43384-2 0  9995
2 47749  53.1595 151.2689 0002321 235.6836 124.3947 15.32148175279391
STARLINK-2163
1 47749U 21017AD  26078.33335648  .00874503  00000-0  24169-1 0  9990
2 47749  53.1589 149.3881 0001358  87.2546 344.3151 15.33897980  5826
STARLINK-2163
1 47749U 21017AD  26078.83335647  .01833030  00000-0  48511-1 0  9992
2 47749  53.1582 147.0515 0001352  56.7026 258.1999 15.34488254  5896
STARLINK-2163
1 47749U 21017AD  26078.91667824  .01566689  00000-0  41800-1 0  9993
2 47749  53.1594 146.6609 0001600  87.9021 327.6382 15.34741896  5910
STARLINK-2698
1 48458U 21040AG  26060.41280673  .00000858  00000-0  40154-4 0  9990
2 48458  53.1608 217.2845 0001203  82.6389 277.4749 15.31038511266120
STARLINK-2698
1 48458U 21040AG  26060.80447304  .00006287  00000-0  21849-3 0  9990
2 48458  53.1599 215.4634 0001409  82.1886 277.9275 15.31052308266185
STARLINK-2698
1 48458U 21040AG  26060.80447304  .00006287  00000-0  21849-3 0  9990
2 48458  53.1599 215.4634 0001409  82.1886 277.9275 15.31052308266185
STARLINK-2698
1 48458U 21040AG  26061.13087499  .00002623  00000-0  98194-4 0  9990
2 48458  53.1594 213.9435 0001687  82.8275 277.2918 15.31034919266230
STARLINK-2698
1 48458U 21040AG  26061.58783286 -.00000540  00000-0 -58288-5 0  9995
2 48458  53.1592 211.8202 0002079  84.8087 275.3151 15.31029223266304
STARLINK-2698
1 48458U 21040AG  26061.78367193 -.00003213  00000-0 -93862-4 0  9998
2 48458  53.1607 210.9078 0001380  83.3284 276.7874 15.31018098266337
STARLINK-2698
1 48458U 21040AG  26061.78367194 -.00003213  00000-0 -93862-4 0  9999
2 48458  53.1607 210.9078 0001380  83.3284 276.7874 15.31018098266337
STARLINK-2698
1 48458U 21040AG  26062.37118073 -.00001660  00000-0 -42689-4 0  9990
2 48458  53.1617 208.1748 0001355  99.6827 260.4327 15.31031279266425
STARLINK-2698
1 48458U 21040AG  26062.63229347  .00000652  00000-0  33362-4 0  9992
2 48458  53.1606 206.9632 0001279  84.7509 275.3638 15.31037474266465
STARLINK-2698
1 48458U 21040AG  26062.69757127  .00001558  00000-0  63160-4 0  9995
2 48458  53.1607 206.6592 0001314  90.4747 269.6404 15.31039729266479
STARLINK-2698
1 48458U 21040AG  26062.69757128  .00001558  00000-0  63160-4 0  9996
2 48458  53.1607 206.6592 0001314  90.4748 269.6404 15.31039729266470
STARLINK-2698
1 48458U 21040AG  26063.41564053  .00005604  00000-0  19613-3 0  9999
2 48458  53.1601 203.3200 0001140  93.6137 266.4995 15.31039199266581
STARLINK-2698
1 48458U 21040AG  26063.41564053  .00005604  00000-0  19613-3 0  9999
2 48458  53.1601 203.3200 0001140  93.6137 266.4995 15.31039199266581
STARLINK-2698
1 48458U 21040AG  26064.06843667 -.00001539  00000-0 -38745-4 0  9995
2 48458  53.1588 200.2843 0000967  91.2560 268.8552 15.31023309266686
STARLINK-2698
1 48458U 21040AG  26064.06843668 -.00001539  00000-0 -38745-4 0  9996
2 48458  53.1588 200.2843 0000967  91.2560 268.8552 15.31023310266688
STARLINK-2698
1 48458U 21040AG  26064.59066518  .00001215  00000-0  51895-4 0  9995
2 48458  53.1607 197.8555 0001188  82.4590 277.6546 15.31036433266762
STARLINK-2698
1 48458U 21040AG  26064.59066518  .00001215  00000-0  51895-4 0  9995
2 48458  53.1607 197.8555 0001188  82.4590 277.6546 15.31036433266762
STARLINK-2698
1 48458U 21040AG  26065.63513148  .00002994  00000-0  11041-3 0  9990
2 48458  53.1631 192.9982 0001607  90.9254 269.1931 15.31031779266926
STARLINK-2698
1 48458U 21040AG  26066.48375918  .00005961  00000-0  20790-3 0  9993
2 48458  53.1621 189.0499 0001410  85.5163 274.5999 15.31030419267055
STARLINK-2698
1 48458U 21040AG  26066.61430070  .00002616  00000-0  97915-4 0  9997
2 48458  53.1625 188.4427 0001322  86.6207 273.4945 15.31053087267073
STARLINK-2698
1 48458U 21040AG  26066.61430070  .00002616  00000-0  97915-4 0  9997
2 48458  53.1625 188.4427 0001322  86.6207 273.4945 15.31053087267073
STARLINK-2698
1 48458U 21040AG  26067.52821838  .00001019  00000-0  45459-4 0  9996
2 48458  53.1625 184.1937 0001379  94.5145 265.6014 15.31033308267213
STARLINK-2698
1 48458U 21040AG  26067.59349844  .00000867  00000-0  40447-4 0  9997
2 48458  53.1618 183.8899 0001326  89.0383 271.0770 15.31032094267225
STARLINK-2698
1 48458U 21040AG  26067.92006080 -.00023023  00000-0 -75224-3 0  9997
2 48458  53.1624 182.3732 0000826  77.5057 282.6037 15.30848394267272
STARLINK-2698
1 48458U 21040AG  26068.50781336 -.00089841  00000-0 -30271-2 0  9998
2 48458  53.1629 179.6450 0001598  55.7745 304.3407 15.30524403267367
STARLINK-2698
1 48458U 21040AG  26068.57312546 -.00093133  00000-0 -31426-2 0  9990
2 48458  53.1606 179.3378 0001389  68.9532 291.1617 15.30496165267376
STARLINK-2698
1 48458U 21040AG  26068.57312546 -.00093133  00000-0 -31426-2 0  9990
2 48458  53.1606 179.3378 0001389  68.9532 291.1617 15.30496165267376
STARLINK-2698
1 48458U 21040AG  26069.29158037 -.00054754  00000-0 -18354-2 0  9994
2 48458  53.1617 176.0020 0001339 100.8967 259.2185 15.30457524267482
STARLINK-2698
1 48458U 21040AG  26069.55280703 -.00053151  00000-0 -17821-2 0  9997
2 48458  53.1601 174.7887 0001146  71.6258 288.4867 15.30436414267526
STARLINK-2698
1 48458U 21040AG  26069.87933780 -.00049523  00000-0 -16598-2 0  9990
2 48458  53.1607 173.2707 0001122  88.7854 271.3275 15.30416780267575
STARLINK-2698
1 48458U 21040AG  26069.94464903 -.00048287  00000-0 -16179-2 0  9995
2 48458  53.1613 172.9679 0001238  72.4895 287.6242 15.30414808267583
STARLINK-2698
1 48458U 21040AG  26069.94464903 -.00048287  00000-0 -16179-2 0  9995
2 48458  53.1613 172.9679 0001238  72.4895 287.6242 15.30414808267583
STARLINK-2698
1 48458U 21040AG  26070.27123449 -.00019024  00000-0 -63014-3 0  9998
2 48458  53.1604 171.4494 0000958 102.5216 257.5892 15.30286351267635
STARLINK-2698
1 48458U 21040AG  26070.46720361  .00003552  00000-0  13199-3 0  9991
2 48458  53.1602 170.5406 0001148  89.3882 270.7250 15.30199335267662
STARLINK-2698
1 48458U 21040AG  26070.83335647  .00013538  00000-0  46844-3 0  9999
2 48458  53.1591 168.8400 0001476  79.6189 138.6255 15.30195498  5897
STARLINK-2698
1 48458U 21040AG  26071.00002314  .00016746  00000-0  57645-3 0  9996
2 48458  53.1593 168.0649 0001376  98.2532 318.6352 15.30187335  5927
STARLINK-2698
1 48458U 21040AG  26071.00002315  .00016746  00000-0  57645-3 0  9997
2 48458  53.1593 168.0649 0001376  98.2532 318.6352 15.30187336  5928
STARLINK-2698
1 48458U 21040AG  26071.25098590  .00001586  00000-0  65672-4 0  9990
2 48458  53.1601 166.8994 0001096  87.5657 272.5469 15.30197540267784
STARLINK-2698
1 48458U 21040AG  26071.57755233  .00002653  00000-0  10165-3 0  9991
2 48458  53.1606 165.3823 0001293 107.6156 252.4986 15.30208238267835
STARLINK-2698
1 48458U 21040AG  26071.57755234  .00002653  00000-0  10165-3 0  9992
2 48458  53.1606 165.3823 0001293 107.6156 252.4986 15.30208238267835
STARLINK-2698
1 48458U 21040AG  26072.29602089 -.00001839  00000-0 -49962-4 0  9996
2 48458  53.1599 162.0493 0002212  56.9422 303.1791 15.30195443267940
STARLINK-2698
1 48458U 21040AG  26073.53675457  .00107038  00000-0  35242-2 0  9993
2 48458  53.1591 156.2788 0002703  69.2785 290.8506 15.30655811268136
STARLINK-2698
1 48458U 21040AG  26074.64735538 -.00005424  00000-0 -17125-3 0  9992
2 48458  53.1587 151.1242 0002884 115.1036 245.0265 15.30165300268302
STARLINK-2698
1 48458U 21040AG  26074.90856565 -.00091513  00000-0 -31037-2 0  9996
2 48458  53.1584 149.9102 0001883 135.2380 224.8773 15.30321998268342
STARLINK-2698
1 48458U 21040AG  26075.56177249 -.00004604  00000-0 -14349-3 0  9997
2 48458  53.1581 146.8767 0001082 112.4914 247.6202 15.30184074268446
STARLINK-2698
1 48458U 21040AG  26075.56177249 -.00004604  00000-0 -14349-3 0  9997
2 48458  53.1581 146.8767 0001082 112.4914 247.6202 15.30184074268446
STARLINK-2698
1 48458U 21040AG  26076.41087547  .00007315  00000-0  25891-3 0  9997
2 48458  53.1578 142.9330 0001092  99.1910 260.9215 15.30191335268577
STARLINK-2698
1 48458U 21040AG  26076.86807600  .00007999  00000-0  28189-3 0  9997
2 48458  53.1575 140.8093 0001085  99.1089 261.0035 15.30202246268640
STARLINK-2698
1 48458U 21040AG  26076.86807600  .00007999  00000-0  28189-3 0  9997
2 48458  53.1575 140.8093 0001085  99.1089 261.0035 15.30202246268640
STARLINK-2698
1 48458U 21040AG  26077.45589407  .00019218  00000-0  65855-3 0  9993
2 48458  53.1565 138.0769 0000926  81.7956 278.3150 15.30237579268737
STARLINK-2698
1 48458U 21040AG  26077.58651948  .00019452  00000-0  66628-3 0  9996
2 48458  53.1566 137.4703 0000934  83.2801 276.8306 15.30243024268754
STARLINK-2698
1 48458U 21040AG  26077.58651949  .00019452  00000-0  66628-3 0  9997
2 48458  53.1566 137.4704 0000934  83.2801 276.8306 15.30243024268755
STARLINK-2698
1 48458U 21040AG  26078.30497628  .00003539  00000-0  13148-3 0  9998
2 48458  53.1558 134.1282 0001682 106.4955 253.6231 15.30219799268864
STARLINK-2698
1 48458U 21040AG  26078.56623700  .00000088  00000-0  15089-4 0  9991
2 48458  53.1585 132.9205 0000976  93.5148 266.5965 15.30208402268901
STARLINK-2698
1 48458U 21040AG  26078.56623701  .00000088  00000-0  15089-4 0  9992
2 48458  53.1585 132.9205 0000976  93.5148 266.5965 15.30208402268901
STARLINK-30915
1 58380U 23178G   26060.11603234  .00007476  00000-0  26344-3 0  9995
2 58380  53.1572 311.1631 0000946  87.0238 273.0871 15.30305262129807
STARLINK-30915
1 58380U 23178G   26060.11603234  .00007476  00000-0  26344-3 0  9995
2 58380  53.1572 311.1631 0000946  87.0238 273.0871 15.30305262129807
STARLINK-30915
1 58380U 23178G   26060.83443065  .00008977  00000-0  31360-3 0  9999
2 58380  53.1568 307.8255 0000920  90.2403 269.8703 15.30328606129914
STARLINK-30915
1 58380U 23178G   26060.96504692  .00011422  00000-0  39549-3 0  9993
2 58380  53.1567 307.2186 0000888  88.1848 271.9254 15.30338424129938
STARLINK-30915
1 58380U 23178G   26060.96504693  .00011422  00000-0  39549-3 0  9994
2 58380  53.1567 307.2186 0000888  88.1848 271.9254 15.30338424129938
STARLINK-30915
1 58380U 23178G   26061.81404650  .00013529  00000-0  46567-3 0  9999
2 58380  53.1567 303.2738 0000883  88.0793 272.0309 15.30367808130067
STARLINK-30915
1 58380U 23178G   26061.94466022  .00014797  00000-0  50801-3 0  9998
2 58380  53.1565 302.6671 0000841  86.9022 273.2075 15.30374179130084
STARLINK-30915
1 58380U 23178G   26061.94466022  .00014797  00000-0  50801-3 0  9998
2 58380  53.1565 302.6671 0000841  86.9022 273.2075 15.30374179130084
STARLINK-30915
1 58380U 23178G   26062.66303159  .00016112  00000-0  55158-3 0  9992
2 58380  53.1566 299.3281 0000852  81.5527 278.5570 15.30397301130199
STARLINK-30915
1 58380U 23178G   26062.66303159  .00016112  00000-0  55158-3 0  9992
2 58380  53.1566 299.3281 0000852  81.5527 278.5570 15.30397300130198
STARLINK-30915
1 58380U 23178G   26062.79364289  .00017555  00000-0  59967-3 0  9991
2 58380  53.1567 298.7224 0000854  85.4306 274.6792 15.30403879130214
STARLINK-30915
1 58380U 23178G   26063.05486471  .00019142  00000-0  65241-3 0  9995
2 58380  53.1567 297.5083 0000848  83.7354 276.3744 15.30414770130253
STARLINK-30915
1 58380U 23178G   26063.05486472  .00019142  00000-0  65241-3 0  9996
2 58380  53.1567 297.5083 0000848  83.7354 276.3744 15.30414770130253
STARLINK-30915
1 58380U 23178G   26064.03442882  .00018096  00000-0  61675-3 0  9996
2 58380  53.1568 292.9565 0000852  79.6204 280.4893 15.30454158130403
STARLINK-30915
1 58380U 23178G   26064.03442882  .00018096  00000-0  61675-3 0  9996
2 58380  53.1568 292.9565 0000852  79.6204 280.4893 15.30454158130403
STARLINK-30915
1 58380U 23178G   26064.36094337  .00019211  00000-0  65363-3 0  9998
2 58380  53.1568 291.4382 0000792  98.1498 261.9593 15.30469592130452
STARLINK-30915
1 58380U 23178G   26064.36094337  .00019211  00000-0  65363-3 0  9998
2 58380  53.1568 291.4382 0000792  98.1498 261.9593 15.30469592130452
STARLINK-30915
1 58380U 23178G   26064.88336145  .00018329  00000-0  62383-3 0  9999
2 58380  53.1572 289.0105 0000764  86.7470 273.3618 15.30491650130539
STARLINK-30915
1 58380U 23178G   26065.01396464  .00018188  00000-0  61902-3 0  9994
2 58380  53.1569 288.4031 0000727  91.0084 269.1001 15.30497139130554
STARLINK-30915
1 58380U 23178G   26065.99347864  .00016544  00000-0  56368-3 0  9995
2 58380  53.1587 283.8500 0000667  83.0080 277.0997 15.30530868130700
STARLINK-30915
1 58380U 23178G   26065.99347864  .00016544  00000-0  56368-3 0  9995
2 58380  53.1587 283.8500 0000667  83.0080 277.0997 15.30530868130700
STARLINK-30915
1 58380U 23178G   26066.97296823  .00021947  00000-0  74230-3 0  9993
2 58380  53.1589 279.2973 0000697  76.8855 283.2224 15.30575283130856
STARLINK-30915
1 58380U 23178G   26066.97296823  .00021947  00000-0  74230-3 0  9993
2 58380  53.1589 279.2973 0000697  76.8855 283.2224 15.30575283130856
STARLINK-30915
1 58380U 23178G   26067.56065035  .00020003  00000-0  67733-3 0  9990
2 58380  53.1571 276.5686 0000927  60.8661 299.2432 15.30597860130945
STARLINK-30915
1 58380U 23178G   26067.62594794  .00019366  00000-0  65616-3 0  9994
2 58380  53.1574 276.2645 0000913  62.6421 297.4673 15.30599455130959
STARLINK-30915
1 58380U 23178G   26067.88713605  .00018878  00000-0  63977-3 0  9991
2 58380  53.1572 275.0504 0000944  63.1482 296.9616 15.30609791130995
STARLINK-30915
1 58380U 23178G   26068.73598742  .00015191  00000-0  51696-3 0  9999
2 58380  53.1565 271.1045 0000956  62.3176 297.7922 15.30637131131122
STARLINK-30915
1 58380U 23178G   26068.93187363  .00016525  00000-0  56105-3 0  9996
2 58380  53.1565 270.1940 0000968  62.1565 297.9534 15.30645879131150
STARLINK-30915
1 58380U 23178G   26068.93187363  .00016525  00000-0  56105-3 0  9996
2 58380  53.1565 270.1940 0000968  62.1565 297.9534 15.30645879131150
STARLINK-30915
1 58380U 23178G   26069.78067315  .00021580  00000-0  72690-3 0  9998
2 58380  53.1558 266.2480 0000589 239.8977 120.1965 15.30718791131289
STARLINK-30915
1 58380U 23178G   26069.91126700 -.00121147  00000-0 -41080-2 0  9997
2 58380  53.1557 265.6407 0001197 164.6219 195.4818 15.30487829131300
STARLINK-30915
1 58380U 23178G   26069.91126700 -.00121147  00000-0 -41080-2 0  9997
2 58380  53.1557 265.6407 0001197 164.6219 195.4818 15.30487829131300
STARLINK-30915
1 58380U 23178G   26070.56422510  .00021547  00000-0  72624-3 0  9998
2 58380  53.1547 262.6050 0000864  41.4647 318.6420 15.30700121131409
STARLINK-30915
1 58380U 23178G   26070.82539852  .00019423  00000-0  65583-3 0  9991
2 58380  53.1542 261.3909 0000955  64.5831 295.5269 15.30708582131442
STARLINK-30915
1 58380U 23178G   26070.89069114  .00017397  00000-0  58878-3 0  9994
2 58380  53.1543 261.0876 0000914  64.3020 295.8075 15.30711983131454
STARLINK-30915
1 58380U 23178G   26070.89069114  .00017397  00000-0  58878-3 0  9994
2 58380  53.1543 261.0876 0000914  64.3020 295.8075 15.30711983131454
STARLINK-30915
1 58380U 23178G   26071.54361301  .00016113  00000-0  54598-3 0  9990
2 58380  53.1535 258.0518 0000902  71.6761 288.4338 15.30730356131550
STARLINK-30915
1 58380U 23178G   26071.54361302  .00016113  00000-0  54598-3 0  9991
2 58380  53.1535 258.0518 0000902  71.6761 288.4338 15.30730356131550
STARLINK-30915
1 58380U 23178G   26071.73948778  .00015370  00000-0  52132-3 0  9996
2 58380  53.1537 257.1410 0000897  70.9711 289.1387 15.30736121131584
STARLINK-30915
1 58380U 23178G   26071.73948779  .00015370  00000-0  52132-3 0  9997
2 58380  53.1537 257.1410 0000897  70.9711 289.1387 15.30736121131584
STARLINK-30915
1 58380U 23178G   26072.52297984  .00016714  00000-0  56533-3 0  9992
2 58380  53.1533 253.4980 0000860  67.7032 292.4060 15.30761078131709
STARLINK-30915
1 58380U 23178G   26072.91472037  .00017245  00000-0  58262-3 0  9990
2 58380  53.1533 251.6765 0000845  67.3485 292.7605 15.30775037131765
STARLINK-30915
1 58380U 23178G   26075.78971943  .00002913  00000-0  11322-3 0  9990
2 58380  53.1576 238.3343 0001003  92.0124 268.0991 15.29361572132205
STARLINK-30915
1 58380U 23178G   26076.16668981 -.00011878  00000-0 -39982-3 0  9992
2 58380  53.1588 236.5851 0000992  88.5155 188.2230 15.29365791  5847
STARLINK-30915
1 58380U 23178G   26076.25002315  .00039710  00000-0  13819-2 0  9998
2 58380  53.1588 236.1981 0000942 100.8010 275.0063 15.29336248  5866
STARLINK-30915
1 58380U 23178G   26076.58335648 -.00022897  00000-0 -78313-3 0  9993
2 58380  53.1590 234.6523 0000967  91.7592 320.2862 15.29374823  5764
STARLINK-30915
1 58380U 23178G   26076.83335647  .00046116  00000-0  16014-2 0  9997
2 58380  53.1593 233.4936 0001028  78.0622 271.1854 15.29339595  5798
STARLINK-30915
1 58380U 23178G   26076.91670139  .00048397  00000-0  16794-2 0  9992
2 58380  53.1590 233.1068 0000956  77.4610  10.9141 15.29341083  5813
STARLINK-30915
1 58380U 23178G   26077.25002315  .00043429  00000-0  15096-2 0  9990
2 58380  53.1595 231.5589 0001047  87.5520  37.0171 15.29333307  5860
STARLINK-30915
1 58380U 23178G   26077.50003471 -.00007320  00000-0 -24154-3 0  9990
2 58380  53.1598 230.3993 0000962  89.7866 332.0191 15.29363656  5805
STARLINK-30915
1 58380U 23178G   26077.58334491 -.00018411  00000-0 -62712-3 0  9992
2 58380  53.1598 230.0134 0001141  82.1757  78.5674 15.29364071  5816
STARLINK-30915
1 58380U 23178G   26077.83335647  .00052522  00000-0  18210-2 0  9996
2 58380  53.1600 228.8546 0001129  78.0331  19.9720 15.29329911  5859
STARLINK-30915
1 58380U 23178G   26077.83335648  .00052522  00000-0  18210-2 0  9997
2 58380  53.1600 228.8546 0001129  78.0331  19.9720 15.29329911  5859
STARLINK-30915
1 58380U 23178G   26078.25002315  .00052407  00000-0  18166-2 0  9998
2 58380  53.1601 226.9193 0001041  87.6793 145.6391 15.29338465  5864
STARLINK-30915
1 58380U 23178G   26078.83335647  .00072851  00000-0  25152-2 0  9997
2 58380  53.1605 224.2157 0001075  74.0131 132.7778 15.29317774  5790
STARLINK-30915
1 58380U 23178G   26078.91667824  .00245285  00000-0  82590-2 0  9993
2 58380  53.1603 223.8287 0001260  78.1116 227.6853 15.29262073  5802
STARLINK-35022
1 65409U 25192F   26060.85967020  .00056745  00000-0  14174-2 0  9990
2 65409  53.1572 268.8481 0001131  87.4979 272.6155 15.39635002 28187
STARLINK-35022
1 65409U 25192F   26060.85967020  .00056745  00000-0  14174-2 0  9990
2 65409  53.1572 268.8481 0001131  87.4979 272.6155 15.39635002 28187
STARLINK-35022
1 65409U 25192F   26061.57373258  .00042662  00000-0  10699-2 0  9995
2 65409  53.1569 265.4826 0000880  83.9437 276.1668 15.39640353 28294
STARLINK-35022
1 65409U 25192F   26061.76878992 -.02442984  00000-0 -73892-1 0  9999
2 65409  53.1578 264.5674 0026236 138.3568 221.9440 15.36946590 28327
STARLINK-35022
1 65409U 25192F   26061.76878992 -.02442984  00000-0 -73892-1 0  9999
2 65409  53.1578 264.5674 0026236 138.3568 221.9440 15.36946590 28327
STARLINK-35022
1 65409U 25192F   26062.16668981 -.01719428  00000-0 -49790-1 0  9998
2 65409  53.1582 262.6920 0000733  44.7904   2.4141 15.38169498  5885
STARLINK-35022
1 65409U 25192F   26062.50001156 -.01556915  00000-0 -47304-1 0  9990
2 65409  53.1588 261.1248 0001243  36.1241  57.0905 15.36903230  5785
STARLINK-35022
1 65409U 25192F   26062.58336806 -.01698482  00000-0 -51609-1 0  9990
2 65409  53.1592 260.7344 0001357  58.3736 136.2484 15.36653333  5792
STARLINK-35022
1 65409U 25192F   26062.75002314 -.01715394  00000-0 -53213-1 0  9998
2 65409  53.1592 259.9540 0001112  51.2956 345.5834 15.36048310  5826
STARLINK-35022
1 65409U 25192F   26062.75002315 -.01715394  00000-0 -53213-1 0  9999
2 65409  53.1592 259.9540 0001112  51.2956 345.5834 15.36048310  5826
STARLINK-35022
1 65409U 25192F   26063.16670139 -.01537769  00000-0 -50410-1 0  9994
2 65409  53.1595 258.0036 0001251  58.0894 123.0539 15.34510237  5886
STARLINK-35022
1 65409U 25192F   26063.50001156 -.02104836  00000-0 -70543-1 0  9994
2 65409  53.1598 256.4450 0001413 132.7795  89.8773 15.33779532  5772
STARLINK-35022
1 65409U 25192F   26063.58335648 -.01686798  00000-0 -57427-1 0  9995
2 65409  53.1598 256.0563 0001165 102.0220 221.0277 15.33093298  5788
STARLINK-35022
1 65409U 25192F   26063.83336806 -.01495042  00000-0 -52706-1 0  9995
2 65409  53.1599 254.8923 0001104  76.2014 187.0829 15.32130357  5827
STARLINK-35022
1 65409U 25192F   26064.16668981 -.00004302  00000-0 -12975-3 0  9994
2 65409  53.1595 253.3397 0001143  77.9590 224.1471 15.31021440  5874
STARLINK-35022
1 65409U 25192F   26064.25003472  .00014791  00000-0  49791-3 0  9999
2 65409  53.1595 252.9518 0001079  83.7660 317.9700 15.31013220  5890
STARLINK-35022
1 65409U 25192F   26064.58335648  .00006048  00000-0  21072-3 0  9996
2 65409  53.1598 251.4013 0001102  87.4597 352.4661 15.31036460  5895
STARLINK-35022
1 65409U 25192F   26064.75001156  .00005145  00000-0  18118-3 0  9993
2 65409  53.1594 250.6274 0001242  76.7293 202.2871 15.31017783  5915
STARLINK-35022
1 65409U 25192F   26064.83334490  .00023193  00000-0  77330-3 0  9996
2 65409  53.1596 250.2402 0001308  74.2793 304.3093 15.31004886  5838
STARLINK-35022
1 65409U 25192F   26064.91668981  .00059848  00000-0  19677-2 0  9995
2 65409  53.1596 249.8526 0001204  70.2069  48.0101 15.30992257  5846
STARLINK-35022
1 65409U 25192F   26065.25002315  .00019622  00000-0  65593-3 0  9991
2 65409  53.1596 248.3009 0001017  81.0872  75.3845 15.31027687  5890
STARLINK-35022
1 65409U 25192F   26065.58334491  .00011267  00000-0  38217-3 0  9990
2 65409  53.1596 246.7507 0001260  86.4647 108.2193 15.31024305  5890
STARLINK-35022
1 65409U 25192F   26065.75001156  .00002147  00000-0  82587-4 0  9995
2 65409  53.1593 245.9765 0001304  78.6930 315.1350 15.31014760  5923
STARLINK-35022
1 65409U 25192F   26065.83334490  .00031645  00000-0  10500-2 0  9993
2 65409  53.1594 245.5893 0001310  78.5167  54.8805 15.30991137  5888
STARLINK-35022
1 65409U 25192F   26066.16670139 -.00008666  00000-0 -27349-3 0  9992
2 65409  53.1590 244.0376 0001222  78.6816  93.0800 15.31036418  5825
STARLINK-35022
1 65409U 25192F   26066.25001157  .00041077  00000-0  13569-2 0  9999
2 65409  53.1593 243.6500 0001325  80.5115 190.6948 15.31011953  5846
STARLINK-35022
1 65409U 25192F   26066.50002314  .00044692  00000-0  14748-2 0  9999
2 65409  53.1593 242.4871 0001188  92.1580 117.8232 15.31007007  5871
STARLINK-35022
1 65409U 25192F   26066.58334491  .00008020  00000-0  27561-3 0  9994
2 65409  53.1592 242.1001 0001290  90.6468 218.8378 15.31020708  5892
STARLINK-35022
1 65409U 25192F   26066.91668981  .00069881  00000-0  22938-2 0  9999
2 65409  53.1588 240.5513 0001250  72.4293 275.3900 15.30974065  5899
STARLINK-35022
1 65409U 25192F   26067.00002314  .00051985  00000-0  17131-2 0  9997
2 65409  53.1585 240.1634 0001388  83.8107   3.5694 15.30981758  5908
STARLINK-35022
1 65409U 25192F   26067.50643592  .00039966  00000-0  13197-2 0  9994
2 65409  53.1584 237.8073 0001008  98.7103 261.4012 15.31036985 29209
STARLINK-35022
1 65409U 25192F   26067.50643592  .00039966  00000-0  13197-2 0  9994
2 65409  53.1584 237.8074 0001008  98.7103 261.4012 15.31036985 29200
STARLINK-35022
1 65409U 25192F   26067.70227111  .00033898  00000-0  11218-2 0  9991
2 65409  53.1606 236.8962 0000584  45.7475 314.3574 15.31042816 29236
STARLINK-35022
1 65409U 25192F   26068.42033041  .00028604  00000-0  94827-3 0  9995
2 65409  53.1609 233.5553 0000635  89.8720 270.2354 15.31072552 29346
STARLINK-35022
1 65409U 25192F   26068.61616518  .00024613  00000-0  81825-3 0  9992
2 65409  53.1594 232.6395 0000609  50.6700 309.4355 15.31064896 29379
STARLINK-35022
1 65409U 25192F   26068.74672620  .00033635  00000-0  11138-2 0  9995
2 65409  53.1589 232.0428 0000808  37.8679 322.2379 15.31027796 29396
STARLINK-35022
1 65409U 25192F   26068.74672621  .00033635  00000-0  11138-2 0  9996
2 65409  53.1589 232.0428 0000808  37.8679 322.2379 15.31027796 29396
STARLINK-35022
1 65409U 25192F   26069.46479757  .00033585  00000-0  11114-2 0  9999
2 65409  53.1595 228.7000 0000972  81.3953 278.7158 15.31049426 29509
STARLINK-35022
1 65409U 25192F   26069.85647624  .00032493  00000-0  10766-2 0  9991
2 65409  53.1603 226.8775 0000877  46.3621 313.7452 15.31025043 29566
STARLINK-35022
1 65409U 25192F   26069.85647624  .00032493  00000-0  10766-2 0  9991
2 65409  53.1603 226.8775 0000877  46.3621 313.7453 15.31025043 29567
STARLINK-35022
1 65409U 25192F   26070.44398475  .00046343  00000-0  15256-2 0  9993
2 65409  53.1592 224.1406 0001145  99.1344 260.9787 15.31066784 29653
STARLINK-35022
1 65409U 25192F   26070.83565748  .00034702  00000-0  11478-2 0  9993
2 65409  53.1593 222.3243 0000681  76.9713 283.1364 15.31048020 29718
STARLINK-35022
1 65409U 25192F   26070.83565748  .00034702  00000-0  11478-2 0  9993
2 65409  53.1593 222.3243 0000681  76.9713 283.1364 15.31048021 29719
STARLINK-35022
1 65409U 25192F   26071.55374040 -.00010715  00000-0 -34165-3 0  9995
2 65409  53.1592 218.9837 0002387 349.4843  10.6108 15.30980194 29821
STARLINK-35022
1 65409U 25192F   26071.61901881 -.00008584  00000-0 -27126-3 0  9991
2 65409  53.1593 218.6821 0000888  49.1911 310.9167 15.30981168 29830
STARLINK-35022
1 65409U 25192F   26071.81486789  .00029416  00000-0  97777-3 0  9992
2 65409  53.1593 217.7718 0000819  43.0931 317.0134 15.30972592 29860
STARLINK-35022
1 65409U 25192F   26071.81486790  .00029416  00000-0  97777-3 0  9994
2 65409  53.1593 217.7718 0000819  43.0931 317.0134 15.30972592 29860
STARLINK-35022
1 65409U 25192F   26072.40238763  .00047852  00000-0  15761-2 0  9991
2 65409  53.1595 215.0401 0001133  30.4006 329.7061 15.31034976 29950
STARLINK-35022
1 65409U 25192F   26073.57738873  .00053484  00000-0  17545-2 0  9997
2 65409  53.1597 209.5744 0001536   8.8489 351.2539 15.31116742 30135
STARLINK-35022
1 65409U 25192F   26073.77322107  .00065699  00000-0  21518-2 0  9994
2 65409  53.1600 208.6648 0001202  34.7575 325.3504 15.31074383 30168
STARLINK-35022
1 65409U 25192F   26074.09961604  .00064204  00000-0  21050-2 0  9993
2 65409  53.1600 207.1451 0001253  72.7690 287.3448 15.31050764 30217
STARLINK-35022
1 65409U 25192F   26074.62184835  .00021781  00000-0  72596-3 0  9990
2 65409  53.1598 204.7125 0002517  96.1658 263.9630 15.31054201 30293
STARLINK-35022
1 65409U 25192F   26074.81768520  .00023766  00000-0  79118-3 0  9992
2 65409  53.1607 203.8042 0000920  72.8172 287.2930 15.31041037 30329
STARLINK-35022
1 65409U 25192F   26075.73158682  .00034198  00000-0  11309-2 0  9994
2 65409  53.1606 199.5519 0000711 119.3913 240.7159 15.31063713 30463
STARLINK-35022
1 65409U 25192F   26076.05798546  .00027741  00000-0  92113-3 0  9998
2 65409  53.1603 198.0343 0001594  84.2008 275.9175 15.31037578 30518
STARLINK-35022
1 65409U 25192F   26076.05798547  .00027741  00000-0  92113-3 0  9999
2 65409  53.1603 198.0343 0001594  84.2008 275.9175 15.31037578 30518
STARLINK-35022
1 65409U 25192F   26077.68995965  .00019138  00000-0  63948-3 0  9997
2 65409  53.1606 190.4444 0001171  87.3069 272.8067 15.31057460 30766
STARLINK-35022
1 65409U 25192F   26077.68995966  .00019138  00000-0  63948-3 0  9998
2 65409  53.1606 190.4444 0001171  87.3069 272.8067 15.31057460 30766
STARLINK-35022
1 65409U 25192F   26078.01635841  .00022245  00000-0  74153-3 0  9992
2 65409  53.1566 188.9275 0002057  80.4696 279.6537 15.31036574 30815
STARLINK-35022
1 65409U 25192F   26078.66914584  .00028632  00000-0  94997-3 0  9991
2 65409  53.1602 185.8913 0001379  82.7768 277.3390 15.31045327 30911
STARLINK-35022
1 65409U 25192F   26078.66914584  .00028632  00000-0  94997-3 0  9991
2 65409  53.1602 185.8913 0001379  82.7768 277.3390 15.31045327 30911
STARLINK-35024
1 65410U 25192G   26060.02042072  .00023387  00000-0  59301-3 0  9990
2 65410  53.1579 272.8531 0001406  84.6000 275.5166 15.39611748 28057
STARLINK-35024
1 65410U 25192G   26060.02042072  .00023387  00000-0  59301-3 0  9990
2 65410  53.1579 272.8531 0001406  84.6000 275.5166 15.39611749 28058
STARLINK-35024
1 65410U 25192G   26060.86431486  .00070965  00000-0  17673-2 0  9992
2 65410  53.1572 268.8768 0001496  94.4673 265.6502 15.39625757 28184
STARLINK-35024
1 65410U 25192G   26060.86431486  .00070965  00000-0  17673-2 0  9992
2 65410  53.1572 268.8768 0001496  94.4673 265.6502 15.39625757 28184
STARLINK-35024
1 65410U 25192G   26060.99414439  .00051012  00000-0  12764-2 0  9993
2 65410  53.1574 268.2657 0001156  92.7592 267.3545 15.39628758 28204
STARLINK-35024
1 65410U 25192G   26060.99414439  .00051012  00000-0  12764-2 0  9993
2 65410  53.1574 268.2657 0001156  92.7592 267.3545 15.39628758 28204
STARLINK-35024
1 65410U 25192G   26061.77311745  .00009732  00000-0  25301-3 0  9990
2 65410  53.1575 264.5935 0001053  63.0559 297.0553 15.39615101 28323
STARLINK-35024
1 65410U 25192G   26061.83803145  .00019559  00000-0  49767-3 0  9997
2 65410  53.1577 264.2893 0001030  95.0847 265.0276 15.39621787 28330
STARLINK-35024
1 65410U 25192G   26061.83803146  .00019559  00000-0  49767-3 0  9998
2 65410  53.1577 264.2893 0001030  95.0847 265.0276 15.39621787 28330
STARLINK-35024
1 65410U 25192G   26062.81177511 -.00136993  00000-0 -35221-2 0  9990
2 65410  53.1585 259.7000 0005882  14.6830 345.4344 15.39201866 28483
STARLINK-35024
1 65410U 25192G   26063.16670139 -.01623452  00000-0 -48142-1 0  9990
2 65410  53.1588 258.0314 0001453  70.7585  96.1016 15.37790287  5889
STARLINK-35024
1 65410U 25192G   26063.50001156 -.01637654  00000-0 -49656-1 0  9995
2 65410  53.1590 256.4651 0001421  89.2250 123.1675 15.36605271  5864
STARLINK-35024
1 65410U 25192G   26063.58335648 -.01561928  00000-0 -48405-1 0  9990
2 65410  53.1594 256.0753 0001268  99.3590 214.2894 15.36305135  5877
STARLINK-35024
1 65410U 25192G   26063.83336806 -.01679191  00000-0 -53018-1 0  9993
2 65410  53.1594 254.9047 0001305  83.3034 173.4709 15.35432927  5913
STARLINK-35024
1 65410U 25192G   26064.16668981 -.01623966  00000-0 -53086-1 0  9996
2 65410  53.1590 253.3448 0001192  86.0538 213.4791 15.34248996  5871
STARLINK-35024
1 65410U 25192G   26064.25003472 -.01603990  00000-0 -52896-1 0  9997
2 65410  53.1596 252.9555 0000773  95.8402 304.2488 15.33939706  5892
STARLINK-35024
1 65410U 25192G   26064.58335648 -.01676963  00000-0 -57613-1 0  9998
2 65410  53.1596 251.3988 0001169  71.5070   9.5639 15.32788085  5846
STARLINK-35024
1 65410U 25192G   26064.75001156 -.01444481  00000-0 -50769-1 0  9994
2 65410  53.1592 250.6237 0001625  81.0962 199.9407 15.32107875  5865
STARLINK-35024
1 65410U 25192G   26064.83334490 -.00794036  00000-0 -27722-1 0  9999
2 65410  53.1593 250.2350 0001443  74.3173 306.6659 15.31547545  5884
STARLINK-35024
1 65410U 25192G   26064.91668981  .00061260  00000-0  20140-2 0  9995
2 65410  53.1594 249.8476 0001104  62.7386  58.1435 15.30983849  5891
STARLINK-35024
1 65410U 25192G   26065.25002315 -.00004706  00000-0 -14302-3 0  9994
2 65410  53.1593 248.2953 0001152  66.3768  92.7545 15.31030299  5844
STARLINK-35024
1 65410U 25192G   26065.58334491 -.00007002  00000-0 -21863-3 0  9995
2 65410  53.1594 246.7452 0001290  71.6425 125.6791 15.31039480  5899
STARLINK-35024
1 65410U 25192G   26065.75001156  .00002636  00000-0  98634-4 0  9990
2 65410  53.1591 245.9712 0001295  67.1690 329.2845 15.31025154  5924
STARLINK-35024
1 65410U 25192G   26065.83334490  .00036298  00000-0  12013-2 0  9995
2 65410  53.1592 245.5841 0001283  61.6710  74.3571 15.31007709  5888
STARLINK-35024
1 65410U 25192G   26066.16670139 -.00011321  00000-0 -36108-3 0  9999
2 65410  53.1588 244.0324 0001232  59.6246 114.7872 15.31037062  5886
STARLINK-35024
1 65410U 25192G   26066.25001157  .00034593  00000-0  11458-2 0  9991
2 65410  53.1590 243.6444 0001097  67.2886 206.5783 15.31006311  5896
STARLINK-35024
1 65410U 25192G   26066.50002314  .00041860  00000-0  13825-2 0  9990
2 65410  53.1590 242.4816 0001165  83.0879 129.5451 15.31008265  5874
STARLINK-35024
1 65410U 25192G   26066.58334491  .00006490  00000-0  22534-3 0  9990
2 65410  53.1590 242.0946 0001143  71.5632 240.5681 15.31024416  5896
STARLINK-35024
1 65410U 25192G   26066.91668981  .00071513  00000-0  23460-2 0  9997
2 65410  53.1587 240.5459 0001223  63.8338 286.6455 15.30982124  5898
STARLINK-35024
1 65410U 25192G   26067.00002314  .00047501  00000-0  15667-2 0  9990
2 65410  53.1583 240.1579 0001308  69.1101  20.9303 15.30994354  5905
STARLINK-35024
1 65410U 25192G   26067.16668981 -.00000702  00000-0 -11179-4 0  9995
2 65410  53.1583 239.3818 0001183  80.5841 208.5753 15.31016600  5824
STARLINK-35024
1 65410U 25192G   26067.50002314  .00032034  00000-0  10621-2 0  9995
2 65410  53.1586 237.8311 0001178  93.4743 233.9389 15.31011604  5877
STARLINK-35024
1 65410U 25192G   26067.58335648 -.00002348  00000-0 -65370-4 0  9992
2 65410  53.1585 237.4441 0001070  90.2823 336.6924 15.31024659  5882
STARLINK-35024
1 65410U 25192G   26067.91668981  .00097132  00000-0  31685-2 0  9991
2 65410  53.1578 235.8951 0001055  72.5538  32.6908 15.31010408  5939
STARLINK-35024
1 65410U 25192G   26068.48512801  .00029241  00000-0  96912-3 0  9994
2 65410  53.1587 233.2490 0001019  86.8686 273.2431 15.31070218 29352
STARLINK-35024
1 65410U 25192G   26068.61568512  .00028382  00000-0  94140-3 0  9995
2 65410  53.1587 232.6450 0002078 322.3211  37.7644 15.31059197 29373
STARLINK-35024
1 65410U 25192G   26068.68096810  .00025289  00000-0  84166-3 0  9999
2 65410  53.1586 232.3417 0000809  35.0037 325.1017 15.31013721 29388
STARLINK-35024
1 65410U 25192G   26068.68096810  .00025289  00000-0  84166-3 0  9999
2 65410  53.1586 232.3417 0000809  35.0037 325.1017 15.31013721 29388
STARLINK-35024
1 65410U 25192G   26069.46432382  .00040647  00000-0  13415-2 0  9997
2 65410  53.1592 228.6973 0001089 109.7500 250.3618 15.31045980 29507
STARLINK-35024
1 65410U 25192G   26069.72544010  .00029245  00000-0  97027-3 0  9991
2 65410  53.1594 227.4814 0000726  99.3582 260.7501 15.31035957 29544
STARLINK-35024
1 65410U 25192G   26069.72544011  .00029245  00000-0  97027-3 0  9992
2 65410  53.1594 227.4814 0000726  99.3582 260.7501 15.31035957 29544
STARLINK-35024
1 65410U 25192G   26070.70462998  .00006708  00000-0  23296-3 0  9991
2 65410  53.1591 222.9280 0001003  75.1385 284.9727 15.30957819 29693
STARLINK-35024
1 65410U 25192G   26070.70462998  .00006708  00000-0  23296-3 0  9991
2 65410  53.1591 222.9280 0001003  75.1385 284.9727 15.30957819 29693
STARLINK-35024
1 65410U 25192G   26071.55327478  .00052069  00000-0  17123-2 0  9990
2 65410  53.1589 218.9807 0001339  70.3806 289.7339 15.31048281 29829
STARLINK-35024
1 65410U 25192G   26071.61855291  .00052461  00000-0  17247-2 0  9999
2 65410  53.1591 218.6762 0001186  62.7792 297.3330 15.31054350 29839
STARLINK-35024
1 65410U 25192G   26071.81439016  .00036491  00000-0  12064-2 0  9991
2 65410  53.1587 217.7687 0001340  82.5614 277.5539 15.31038601 29860
STARLINK-35024
1 65410U 25192G   26071.81439017  .00036491  00000-0  12064-2 0  9992
2 65410  53.1587 217.7687 0001340  82.5614 277.5539 15.31038601 29860
STARLINK-35024
1 65410U 25192G   26072.46716838  .00052887  00000-0  17363-2 0  9997
2 65410  53.1586 214.7304 0001455  64.4639 295.6513 15.31096115 29963
STARLINK-35024
1 65410U 25192G   26073.64217537  .00017862  00000-0  59754-3 0  9995
2 65410  53.1602 209.2661 0001006  90.9250 269.1867 15.31067709 30149
STARLINK-35024
1 65410U 25192G   26073.77253417  .00634939  00000-0  18856-1 0  9992
2 65410  53.1596 208.6580 0001654  41.1999 318.9127 15.32004257 30165
STARLINK-35024
1 65410U 25192G   26074.25001157  .00082840  00000-0  27118-2 0  9998
2 65410  53.1593 206.4383 0000947  86.7215  25.4385 15.30979972  5799
STARLINK-35024
1 65410U 25192G   26074.62138538 -.00130238  00000-0 -43690-2 0  9993
2 65410  53.1597 204.7110 0002646 321.8396  38.2417 15.30874658 30299
STARLINK-35024
1 65410U 25192G   26074.81720464  .00060264  00000-0  19772-2 0  9992
2 65410  53.1598 203.8002 0000333  67.4515 292.6522 15.31058125 30328
STARLINK-35024
1 65410U 25192G   26075.07832069  .00036884  00000-0  12189-2 0  9992
2 65410  53.1600 202.5862 0000503  90.6164 269.4895 15.31049607 30363
STARLINK-35024
1 65410U 25192G   26075.73110859  .00034951  00000-0  11555-2 0  9990
2 65410  53.1604 199.5494 0000583 106.3275 253.7790 15.31059442 30468
STARLINK-35024
1 65410U 25192G   26076.05756944 -.00229989  00000-0 -78704-2 0  9995
2 65410  53.1602 198.0316 0000834  61.9741 298.1344 15.30705050 30512
STARLINK-35024
1 65410U 25192G   26076.05756945 -.00229989  00000-0 -78704-2 0  9996
2 65410  53.1602 198.0316 0000834  61.9741 298.1344 15.30705050 30512
STARLINK-35024
1 65410U 25192G   26077.25002315  .00047851  00000-0  16181-2 0  9999
2 65410  53.1600 192.4935 0000938  95.0049 357.7107 15.30184825  5836
STARLINK-35024
1 65410U 25192G   26077.50003471 -.00024165  00000-0 -80603-3 0  9997
2 65410  53.1600 191.3339 0000842  87.3973 303.3257 15.30215643  5876
STARLINK-35024
1 65410U 25192G   26077.58334491 -.00008264  00000-0 -26718-3 0  9993
2 65410  53.1598 190.9474 0000981  73.9544  55.9632 15.30203576  5886
STARLINK-35024
1 65410U 25192G   26077.83335647  .00023583  00000-0  80608-3 0  9992
2 65410  53.1596 189.7860 0000900  73.5263 354.4088 15.30190491  5922
STARLINK-35024
1 65410U 25192G   26077.83335648  .00023583  00000-0  80608-3 0  9993
2 65410  53.1596 189.7860 0000900  73.5263 354.4088 15.30190491  5922
STARLINK-35024
1 65410U 25192G   26078.25002315  .00038628  00000-0  13105-2 0  9995
2 65410  53.1596 187.8492 0001145  90.8502 113.6636 15.30177312  5989
STARLINK-35024
1 65410U 25192G   26078.83335647  .00011155  00000-0  38828-3 0  9992
2 65410  53.1590 185.1418 0001069  75.6336 104.0656 15.30190770  5779
STARLINK-35024
1 65410U 25192G   26078.91667824 -.00028823  00000-0 -96454-3 0  9997
2 65410  53.1590 184.7542 0001057  80.6011 198.3443 15.30208706  5796
STARLINK-34983
1 65411U 25192H   26060.85038629  .00047471  00000-0  11891-2 0  9996
2 65411  53.1573 268.7879 0001197  78.1223 281.9916 15.39626085 28181
STARLINK-34983
1 65411U 25192H   26060.85038629  .00047471  00000-0  11891-2 0  9996
2 65411  53.1573 268.7879 0001197  78.1223 281.9916 15.39626085 28181
STARLINK-34983
1 65411U 25192H   26060.98021491  .00042921  00000-0  10766-2 0  9994
2 65411  53.1579 268.1769 0001227  86.5003 273.6142 15.39630612 28205
STARLINK-34983
1 65411U 25192H   26061.56444371  .00030014  00000-0  75683-3 0  9995
2 65411  53.1580 265.4201 0000475 108.3216 251.7840 15.39642441 28295
STARLINK-34983
1 65411U 25192H   26061.75918596  .00025170  00000-0  63676-3 0  9997
2 65411  53.1575 264.5021 0001241 109.7406 250.3733 15.39638394 28329
STARLINK-34983
1 65411U 25192H   26061.82410188  .00027868  00000-0  70382-3 0  9997
2 65411  53.1576 264.1987 0000935  77.8593 282.2516 15.39633658 28330
STARLINK-34983
1 65411U 25192H   26061.82410188  .00027868  00000-0  70382-3 0  9997
2 65411  53.1576 264.1987 0000935  77.8593 282.2516 15.39633658 28330
STARLINK-34983
1 65411U 25192H   26062.60316506  .00027371  00000-0  69515-3 0  9998
2 65411  53.1579 260.5309 0001042 268.0172  92.0713 15.39471651 28450
STARLINK-34983
1 65411U 25192H   26062.60316506  .00027371  00000-0  69515-3 0  9998
2 65411  53.1579 260.5309 0001042 268.0172  92.0713 15.39471651 28450
STARLINK-34983
1 65411U 25192H   26062.92808372 -.00284402  00000-0 -78010-2 0  9991
2 65411  53.1590 259.0035 0001235  48.0993 312.0116 15.37880410 28506
STARLINK-34983
1 65411U 25192H   26063.16670139 -.01711542  00000-0 -51973-1 0  9995
2 65411  53.1587 257.8822 0001260  83.9876 157.3854 15.36697351  5815
STARLINK-34983
1 65411U 25192H   26063.50001156 -.01646252  00000-0 -51781-1 0  9992
2 65411  53.1591 256.3188 0001054 101.1366 184.4357 15.35491483  5868
STARLINK-34983
1 65411U 25192H   26063.58335648 -.01578975  00000-0 -50796-1 0  9997
2 65411  53.1590 255.9301 0000874 101.6247 284.8691 15.35190489  5881
STARLINK-34983
1 65411U 25192H   26063.83336806 -.01665626  00000-0 -54478-1 0  9993
2 65411  53.1591 254.7612 0001048  76.0972 252.5095 15.34311149  5751
STARLINK-34983
1 65411U 25192H   26064.16668981 -.01882578  00000-0 -64428-1 0  9995
2 65411  53.1590 253.2044 0001571  62.6587 307.3149 15.33301110  5819
STARLINK-34983
1 65411U 25192H   26064.25003472 -.02867122  00000-0 -98578-1 0  9995
2 65411  53.1591 252.8145 0001604  60.3315  49.7750 15.33524836  5826
STARLINK-34983
1 65411U 25192H   26064.58335648  .00019657  00000-0  65790-3 0  9994
2 65411  53.1597 251.2609 0001389  91.6740  58.4245 15.30987460  5873
STARLINK-34983
1 65411U 25192H   26064.75001156  .00010441  00000-0  35538-3 0  9996
2 65411  53.1593 250.4870 0001674  81.9125 267.2277 15.30996116  5903
STARLINK-34983
1 65411U 25192H   26064.83334490  .00027131  00000-0  90247-3 0  9997
2 65411  53.1590 250.1000 0001631  80.0045   8.6951 15.30991825  5915
STARLINK-34983
1 65411U 25192H   26064.91668981  .00058672  00000-0  19302-2 0  9997
2 65411  53.1592 249.7123 0001578  76.0454 112.2872 15.30982277  5922
STARLINK-34983
1 65411U 25192H   26065.25002315 -.00002572  00000-0 -72747-4 0  9992
2 65411  53.1592 248.1603 0001517  86.8016 139.7642 15.31018683  5891
STARLINK-34983
1 65411U 25192H   26065.58334491  .00013432  00000-0  45307-3 0  9997
2 65411  53.1593 246.6103 0001522  88.3901 176.3520 15.31032469  5784
STARLINK-34983
1 65411U 25192H   26065.75001156  .00005998  00000-0  20912-3 0  9998
2 65411  53.1589 245.8364 0001560  83.7662  20.1129 15.31032687  5811
STARLINK-34983
1 65411U 25192H   26065.83334490  .00046867  00000-0  15449-2 0  9995
2 65411  53.1590 245.4490 0001565  75.8314 127.6201 15.31018227  5829
STARLINK-34983
1 65411U 25192H   26066.16670139 -.00014653  00000-0 -47096-3 0  9999
2 65411  53.1588 243.8976 0001547  84.9693 156.8829 15.31043845  5877
STARLINK-34983
1 65411U 25192H   26066.25001157  .00039086  00000-0  12923-2 0  9992
2 65411  53.1590 243.5097 0001604  86.8710 254.4470 15.31004150  5891
STARLINK-34983
1 65411U 25192H   26066.50002314  .00044637  00000-0  14728-2 0  9999
2 65411  53.1590 242.3466 0001208  89.5678 190.5099 15.31010160  5931
STARLINK-34983
1 65411U 25192H   26066.58334491  .00005484  00000-0  19224-3 0  9995
2 65411  53.1591 241.9597 0001428  84.9703 294.6126 15.31027989  5893
STARLINK-34983
1 65411U 25192H   26066.91668981  .00075825  00000-0  24851-2 0  9993
2 65411  53.1588 240.4106 0001283  82.9849 334.9520 15.30985276  5849
STARLINK-34983
1 65411U 25192H   26067.00002314  .00047076  00000-0  15527-2 0  9993
2 65411  53.1587 240.0229 0001201  86.1298  71.3687 15.30999379  5850
STARLINK-34983
1 65411U 25192H   26067.16668981  .00001733  00000-0  68948-4 0  9995
2 65411  53.1588 239.2467 0001183  93.7767 262.8514 15.31015649  5888
STARLINK-34983
1 65411U 25192H   26067.50002314  .00033774  00000-0  11190-2 0  9990
2 65411  53.1590 237.6960 0001256  94.7698 300.1202 15.31005974  5932
STARLINK-34983
1 65411U 25192H   26067.58335648  .00003908  00000-0  14050-3 0  9992
2 65411  53.1590 237.3089 0001134  99.5144  34.9322 15.31019458  5875
STARLINK-34983
1 65411U 25192H   26067.91668981  .00076749  00000-0  25149-2 0  9991
2 65411  53.1589 235.7601 0001107  83.2428  89.4677 15.30985020  5920
STARLINK-34983
1 65411U 25192H   26068.47290728  .00040324  00000-0  13308-2 0  9997
2 65411  53.1605 233.1723 0001274  99.1511 260.9635 15.31050500 29350
STARLINK-34983
1 65411U 25192H   26068.60346456  .00028578  00000-0  94854-3 0  9995
2 65411  53.1604 232.5644 0000965  74.5612 285.5496 15.31034117 29375
STARLINK-34983
1 65411U 25192H   26068.66874530  .00045835  00000-0  15108-2 0  9999
2 65411  53.1603 232.2609 0001000  75.2224 284.8888 15.31032253 29387
STARLINK-34983
1 65411U 25192H   26068.66874531  .00045835  00000-0  15108-2 0  9990
2 65411  53.1603 232.2609 0001000  75.2224 284.8888 15.31032253 29387
STARLINK-34983
1 65411U 25192H   26069.45208872  .00047439  00000-0  15608-2 0  9994
2 65411  53.1603 228.6188 0001339  95.6221 264.4932 15.31075688 29503
STARLINK-34983
1 65411U 25192H   26069.84376405  .00038879  00000-0  12842-2 0  9990
2 65411  53.1603 226.7970 0001075  82.7145 277.3978 15.31038680 29560
STARLINK-34983
1 65411U 25192H   26069.84376405  .00038879  00000-0  12842-2 0  9990
2 65411  53.1603 226.7970 0001075  82.7145 277.3978 15.31038680 29560
STARLINK-34983
1 65411U 25192H   26070.43127423  .00038714  00000-0  12781-2 0  9991
2 65411  53.1604 224.0637 0000822  92.6836 267.4259 15.31057807 29652
STARLINK-34983
1 65411U 25192H   26070.82294887  .00031866  00000-0  10557-2 0  9993
2 65411  53.1604 222.2437 0000831  78.7192 281.3903 15.31039652 29716
STARLINK-34983
1 65411U 25192H   26070.82294888  .00031866  00000-0  10557-2 0  9994
2 65411  53.1604 222.2437 0000831  78.7192 281.3903 15.31039652 29716
STARLINK-34983
1 65411U 25192H   26071.60664057 -.00011070  00000-0 -36016-3 0  9996
2 65411  53.1614 218.6026 0002394 147.3571 212.7579 15.30373654 29832
STARLINK-34983
1 65411U 25192H   26071.67195231 -.00067753  00000-0 -22924-2 0  9997
2 65411  53.1606 218.2988 0001368  91.5533 268.5625 15.30253851 29842
STARLINK-34983
1 65411U 25192H   26071.80258926 -.00000739  00000-0 -12823-4 0  9993
2 65411  53.1598 217.6920 0001474  78.6305 281.4861 15.30213937 29861
STARLINK-34983
1 65411U 25192H   26071.86790664  .00024713  00000-0  84359-3 0  9997
2 65411  53.1600 217.3889 0001529  80.1472 279.9701 15.30205235 29878
STARLINK-34983
1 65411U 25192H   26071.86790665  .00024713  00000-0  84359-3 0  9998
2 65411  53.1600 217.3889 0001529  80.1472 279.9701 15.30205235 29878
STARLINK-34983
1 65411U 25192H   26072.58334491 -.00005347  00000-0 -16854-3 0  9998
2 65411  53.1603 214.0660 0001536  88.4183 255.0053 15.30197053  5877
STARLINK-34983
1 65411U 25192H   26072.91668981  .00033701  00000-0  11455-2 0  9993
2 65411  53.1601 212.5183 0001242  81.9122 298.8446 15.30180667  5899
STARLINK-34983
1 65411U 25192H   26073.25002315  .00069732  00000-0  23479-2 0  9996
2 65411  53.1603 210.9680 0001189  92.0264 326.0045 15.30153281  5896
STARLINK-34983
1 65411U 25192H   26073.58335648 -.00003791  00000-0 -11602-3 0  9991
2 65411  53.1604 209.4211 0001293  94.0848   1.2264 15.30175408  5896
STARLINK-34983
1 65411U 25192H   26073.91668981  .00029578  00000-0  10078-2 0  9991
2 65411  53.1602 207.8730 0001080  82.0769  50.4696 15.30166962  5840
STARLINK-34983
1 65411U 25192H   26074.25001157  .00062806  00000-0  21180-2 0  9992
2 65411  53.1603 206.3234 0001270  90.1325  79.5877 15.30151402  5894
STARLINK-34983
1 65411U 25192H   26074.58335648 -.00001104  00000-0 -25174-4 0  9998
2 65411  53.1604 204.7765 0001171  81.8311 125.1855 15.30187929  5895
STARLINK-34983
1 65411U 25192H   26074.91668981  .00003303  00000-0  12362-3 0  9999
2 65411  53.1602 203.2286 0001227  68.5681 175.6853 15.30190413  5844
STARLINK-34983
1 65411U 25192H   26075.06833686  .00024934  00000-0  85114-3 0  9990
2 65411  53.1614 202.5217 0000991  56.1666 303.9429 15.30199920 30368
STARLINK-34983
1 65411U 25192H   26075.72148647  .00030971  00000-0  10532-2 0  9998
2 65411  53.1614 199.4880 0001181  63.0541 297.0580 15.30207799 30465
STARLINK-34983
1 65411U 25192H   26076.04805819  .00028239  00000-0  96155-3 0  9995
2 65411  53.1614 197.9712 0001398  62.4236 297.6907 15.30212998 30518
STARLINK-34983
1 65411U 25192H   26076.04805821  .00028239  00000-0  96155-3 0  9998
2 65411  53.1614 197.9712 0001398  62.4236 297.6907 15.30212998 30518
STARLINK-34983
1 65411U 25192H   26076.70120193  .00024577  00000-0  83871-3 0  9995
2 65411  53.1632 194.9375 0001543  67.4749 292.6415 15.30218302 30611
STARLINK-34983
1 65411U 25192H   26077.02777628  .00023046  00000-0  78783-3 0  9998
2 65411  53.1629 193.4209 0001693  69.4759 290.6423 15.30199839 30661
STARLINK-34983
1 65411U 25192H   26077.68092233  .00032764  00000-0  11130-2 0  9991
2 65411  53.1595 190.3880 0001365  69.4220 290.6927 15.30212734 30763
STARLINK-34983
1 65411U 25192H   26077.68092234  .00032764  00000-0  11130-2 0  9992
2 65411  53.1595 190.3880 0001365  69.4220 290.6927 15.30212734 30763
STARLINK-34983
1 65411U 25192H   26078.26875267  .00025722  00000-0  87718-3 0  9994
2 65411  53.1548 187.6580 0001718  72.8323 287.2865 15.30214546 30857
STARLINK-34983
1 65411U 25192H   26078.72595802  .00027745  00000-0  94539-3 0  9995
2 65411  53.1600 185.5338 0000587  43.5904 316.5144 15.30199926 30925
STARLINK-34983
1 65411U 25192H   26078.72595803  .00027745  00000-0  94539-3 0  9996
2 65411  53.1600 185.5338 0000587  43.5904 316.5144 15.30199926 30925
STARLINK-35060
1 65693U 25212T   26060.14292081  .00052520  00000-0  13134-2 0  9990
2 65693  53.1609  15.4772 0000952  81.7024 278.4089 15.39633332 26070
STARLINK-35060
1 65693U 25212T   26060.27274791  .00063262  00000-0  15770-2 0  9995
2 65693  53.1611  14.8656 0001107  97.7738 262.3392 15.39648408 26090
STARLINK-35060
1 65693U 25212T   26060.27274791  .00063262  00000-0  15770-2 0  9995
2 65693  53.1611  14.8656 0001107  97.7738 262.3392 15.39648408 26090
STARLINK-35060
1 65693U 25212T   26060.85697837  .00050035  00000-0  12515-2 0  9997
2 65693  53.1613  12.1109 0001173 105.0041 255.1094 15.39647246 26187
STARLINK-35060
1 65693U 25212T   26060.85697837  .00050035  00000-0  12515-2 0  9997
2 65693  53.1613  12.1109 0001173 105.0041 255.1094 15.39647246 26187
STARLINK-35060
1 65693U 25212T   26061.05172370  .00020114  00000-0  51154-3 0  9998
2 65693  53.1611  11.1940 0001078  52.4337 307.6765 15.39618090 26211
STARLINK-35060
1 65693U 25212T   26061.57104664  .00048185  00000-0  12066-2 0  9992
2 65693  53.1617   8.7481 0001186 108.7100 251.4033 15.39628804 26298
STARLINK-35060
1 65693U 25212T   26061.83070461  .00046466  00000-0  11635-2 0  9999
2 65693  53.1611   7.5248 0001785 100.0013 260.1193 15.39648466 26338
STARLINK-35060
1 65693U 25212T   26061.83070461  .00046466  00000-0  11635-2 0  9999
2 65693  53.1611   7.5248 0001785 100.0013 260.1193 15.39648466 26338
STARLINK-35060
1 65693U 25212T   26062.15527507  .00023096  00000-0  58510-3 0  9991
2 65693  53.1615   5.9966 0000989 109.6384 250.4727 15.39648013 26380
STARLINK-35060
1 65693U 25212T   26062.22019105  .00046479  00000-0  11643-2 0  9994
2 65693  53.1612   5.6909 0000933 105.3500 254.7608 15.39634460 26390
STARLINK-35060
1 65693U 25212T   26062.22019106  .00046479  00000-0  11643-2 0  9995
2 65693  53.1612   5.6909 0000933 105.3500 254.7608 15.39634460 26390
STARLINK-35060
1 65693U 25212T   26062.93446355 -.00028544  00000-0 -71700-3 0  9999
2 65693  53.1615   2.3266 0003914 256.5653 103.4915 15.39153081 26502
STARLINK-35060
1 65693U 25212T   26063.16670139 -.02028873  00000-0 -62604-1 0  9992
2 65693  53.1601   1.2385 0001512  97.0446 109.0327 15.36797263  5887
STARLINK-35060
1 65693U 25212T   26063.50001156 -.02055166  00000-0 -65432-1 0  9994
2 65693  53.1603 359.6748 0001508  94.9632 155.2631 15.35299061  5827
STARLINK-35060
1 65693U 25212T   26063.58335648 -.02094986  00000-0 -67642-1 0  9996
2 65693  53.1599 359.2844 0001079 116.4034 234.6783 15.34930287  5846
STARLINK-35060
1 65693U 25212T   26063.83336806 -.02349863  00000-0 -79025-1 0  9996
2 65693  53.1596 358.1157 0001016 119.1341 173.6184 15.34077128  5876
STARLINK-35060
1 65693U 25212T   26064.16668981 -.01398535  00000-0 -49086-1 0  9998
2 65693  53.1600 356.5629 0001883  94.4403 239.0552 15.32046283  5821
STARLINK-35060
1 65693U 25212T   26064.25003472 -.00608461  00000-0 -21164-1 0  9994
2 65693  53.1596 356.1752 0001616  95.2469 338.2522 15.31424191  5841
STARLINK-35060
1 65693U 25212T   26064.58335648  .00051932  00000-0  17108-2 0  9990
2 65693  53.1597 354.6225 0001662  94.5769  17.3159 15.30992304  5897
STARLINK-35060
1 65693U 25212T   26064.75001156  .00065231  00000-0  21418-2 0  9999
2 65693  53.1595 353.8469 0001874  98.1632 212.7874 15.30996792  5913
STARLINK-35060
1 65693U 25212T   26064.83334490  .00030382  00000-0  10080-2 0  9990
2 65693  53.1596 353.4596 0001847  98.0214 312.4772 15.31016450  5916
STARLINK-35060
1 65693U 25212T   26064.91668981 -.00002547  00000-0 -71880-4 0  9995
2 65693  53.1598 353.0726 0001795  94.9939  55.1283 15.31034516  5922
STARLINK-35060
1 65693U 25212T   26065.25002315  .00073300  00000-0  24025-2 0  9996
2 65693  53.1597 351.5240 0001673  89.6259  98.7688 15.30999357  5841
STARLINK-35060
1 65693U 25212T   26065.58334491  .00052280  00000-0  17212-2 0  9999
2 65693  53.1595 349.9711 0001726  88.7286 137.9062 15.31009883  5896
STARLINK-35060
1 65693U 25212T   26065.75001156  .00056878  00000-0  18714-2 0  9992
2 65693  53.1596 349.1961 0001353 120.4541 305.3394 15.30991918  5921
STARLINK-35060
1 65693U 25212T   26065.83334490  .00027179  00000-0  90388-3 0  9991
2 65693  53.1598 348.8090 0001241  77.8146  87.5549 15.30997632  5889
STARLINK-35060
1 65693U 25212T   26066.16670139  .00059573  00000-0  19592-2 0  9991
2 65693  53.1597 347.2604 0001748  83.9019 119.8526 15.30985225  5824
STARLINK-35060
1 65693U 25212T   26066.25001157  .00077671  00000-0  25457-2 0  9995
2 65693  53.1595 346.8729 0001216  80.4595 222.7470 15.30972426  5849
STARLINK-35060
1 65693U 25212T   26066.50002314  .00010012  00000-0  34121-3 0  9994
2 65693  53.1598 345.7086 0001216  93.6567 148.2811 15.31002230  5873
STARLINK-35060
1 65693U 25212T   26066.58334491  .00058848  00000-0  19362-2 0  9994
2 65693  53.1597 345.3208 0001234 103.6621 237.7848 15.30977355  5891
STARLINK-35060
1 65693U 25212T   26066.91668981 -.00001912  00000-0 -51015-4 0  9990
2 65693  53.1598 343.7711 0001321 103.0557 276.6842 15.31016858  5891
STARLINK-35060
1 65693U 25212T   26067.00002314  .00017043  00000-0  57192-3 0  9994
2 65693  53.1596 343.3842 0001278 100.5200  18.7895 15.31001679  5908
STARLINK-35060
1 65693U 25212T   26067.16668981  .00083326  00000-0  27268-2 0  9996
2 65693  53.1598 342.6098 0001236  86.2155 232.2132 15.30987415  5826
STARLINK-35060
1 65693U 25212T   26067.50002314  .00015905  00000-0  53441-3 0  9997
2 65693  53.1600 341.0577 0001226  99.3817 257.3023 15.31014085  5871
STARLINK-35060
1 65693U 25212T   26067.58335648  .00064384  00000-0  21150-2 0  9990
2 65693  53.1600 340.6698 0001213 100.8191 355.4413 15.30988194  5883
STARLINK-35060
1 65693U 25212T   26067.91668981 -.00001288  00000-0 -30475-4 0  9994
2 65693  53.1601 339.1200 0001165  89.6241  44.8781 15.31026900  5934
STARLINK-35060
1 65693U 25212T   26068.15343625  .00050590  00000-0  16653-2 0  9994
2 65693  53.1608 338.0193 0001164  83.9606 276.1528 15.31030389 27301
STARLINK-35060
1 65693U 25212T   26068.93678700  .00027977  00000-0  92860-3 0  9993
2 65693  53.1615 334.3761 0001142  97.0742 263.0389 15.31045057 27423
STARLINK-35060
1 65693U 25212T   26069.00206625  .00025240  00000-0  83925-3 0  9998
2 65693  53.1613 334.0727 0001121  88.9644 271.1486 15.31044136 27433
STARLINK-35060
1 65693U 25212T   26069.00206626  .00025240  00000-0  83925-3 0  9999
2 65693  53.1613 334.0727 0001121  88.9644 271.1486 15.31044136 27433
STARLINK-35060
1 65693U 25212T   26069.72012085  .00031219  00000-0  10331-2 0  9995
2 65693  53.1614 330.7329 0001161  75.7546 284.3584 15.31084157 27548
STARLINK-35060
1 65693U 25212T   26069.91594880  .00029852  00000-0  98826-3 0  9990
2 65693  53.1613 329.8226 0000978  84.7609 275.3504 15.31095663 27576
STARLINK-35060
1 65693U 25212T   26069.91594880  .00029852  00000-0  98826-3 0  9990
2 65693  53.1613 329.8226 0000978  84.7609 275.3504 15.31095663 27576
STARLINK-35060
1 65693U 25212T   26070.96043384  .00023176  00000-0  77234-3 0  9998
2 65693  53.1615 324.9633 0001092  77.0637 283.0486 15.31022489 27739
STARLINK-35060
1 65693U 25212T   26071.02571324  .00021850  00000-0  72891-3 0  9997
2 65693  53.1613 324.6601 0001063  73.2477 286.8640 15.31023955 27740
STARLINK-35060
1 65693U 25212T   26071.02571325  .00021850  00000-0  72891-3 0  9998
2 65693  53.1613 324.6601 0001063  73.2477 286.8641 15.31023955 27741
STARLINK-35060
1 65693U 25212T   26071.67850520  .00027005  00000-0  89678-3 0  9995
2 65693  53.1612 321.6279 0001392  66.7425 293.3723 15.31048494 27843
STARLINK-35060
1 65693U 25212T   26071.93961552  .00031219  00000-0  10340-2 0  9993
2 65693  53.1601 320.4077 0000808 138.2198 221.8865 15.31057262 27887
STARLINK-35060
1 65693U 25212T   26071.93961553  .00031219  00000-0  10340-2 0  9994
2 65693  53.1601 320.4077 0000808 138.2198 221.8865 15.31057262 27887
STARLINK-35060
1 65693U 25212T   26072.07017669  .00027663  00000-0  91839-3 0  9991
2 65693  53.1595 319.8030 0001001  89.9160 270.1956 15.31043903 27905
STARLINK-35060
1 65693U 25212T   26072.91880069  .00028037  00000-0  93024-3 0  9990
2 65693  53.1602 315.8571 0001245 116.6944 243.4185 15.31056092 28033
STARLINK-35060
1 65693U 25212T   26073.37575422  .00035139  00000-0  11622-2 0  9999
2 65693  53.1596 313.7303 0001188  86.4076 273.7061 15.31045820 28105
STARLINK-35060
1 65693U 25212T   26073.89798496  .00034136  00000-0  11294-2 0  9995
2 65693  53.1592 311.3009 0001045 100.0809 260.0310 15.31048190 28184
STARLINK-35060
1 65693U 25212T   26073.96326500  .00014471  00000-0  48688-3 0  9994
2 65693  53.1588 310.9975 0001310  76.7762 283.3386 15.31049780 28196
STARLINK-35060
1 65693U 25212T   26074.35494136  .00014455  00000-0  48649-3 0  9998
2 65693  53.1597 309.1736 0001288  86.6544 273.4604 15.31039383 28251
STARLINK-35060
1 65693U 25212T   26074.94245622  .00027950  00000-0  92803-3 0  9992
2 65693  53.1589 306.4417 0001100  93.4586 266.6541 15.31034613 28348
STARLINK-35060
1 65693U 25212T   26075.85635778  .00019864  00000-0  66345-3 0  9995
2 65693  53.1581 302.1906 0000751  76.7755 283.3330 15.31047273 28482
STARLINK-35060
1 65693U 25212T   26075.92163786  .00015403  00000-0  51749-3 0  9995
2 65693  53.1573 301.8869 0000983  68.7013 291.4093 15.31043943 28499
STARLINK-35060
1 65693U 25212T   26075.92163786  .00015403  00000-0  51749-3 0  9995
2 65693  53.1573 301.8870 0000983  68.7013 291.4093 15.31043943 28491
STARLINK-35060
1 65693U 25212T   26076.63970489  .00008155  00000-0  27985-3 0  9991
2 65693  53.1575 298.5500 0001215  95.8021 264.3119 15.31043384 28604
STARLINK-35060
1 65693U 25212T   26076.90113132 -.01415731  00000-0 -54392-1 0  9990
2 65693  53.1578 297.3363 0012524  35.0041 325.1780 15.29053558 28649
STARLINK-35060
1 65693U 25212T   26076.90113132 -.01415731  00000-0 -54392-1 0  9990
2 65693  53.1578 297.3363 0012524  35.0041 325.1780 15.29053558 28649
STARLINK-35060
1 65693U 25212T   26077.25002315 -.00023621  00000-0 -76739-3 0  9992
2 65693  53.1570 295.7123 0001122  91.4295  34.4415 15.31045880  5839
STARLINK-35060
1 65693U 25212T   26077.33335647 -.00008915  00000-0 -28172-3 0  9995
2 65693  53.1572 295.3242 0001188  91.5127 133.9289 15.31036301  5849
STARLINK-35060
1 65693U 25212T   26077.61896615  .00026429  00000-0  87985-3 0  9998
2 65693  53.1583 293.9953 0005467  50.7369 309.4117 15.30970007 28757
STARLINK-35060
1 65693U 25212T   26077.88003199 -.00127441  00000-0 -42334-2 0  9990
2 65693  53.1584 292.7810 0003451  42.7617 317.3652 15.31171987 28792
STARLINK-35060
1 65693U 25212T   26077.88003200 -.00127441  00000-0 -42334-2 0  9993
2 65693  53.1584 292.7810 0003451  42.7617 317.3652 15.31171987 28792
STARLINK-35060
1 65693U 25212T   26078.85919551  .00020024  00000-0  66894-3 0  9991
2 65693  53.1589 288.2277 0001273 112.7301 247.3835 15.31034388 28947
STARLINK-35060
1 65693U 25212T   26078.85919552  .00020024  00000-0  66894-3 0  9992
2 65693  53.1589 288.2277 0001273 112.7301 247.3835 15.31034389 28948
STARLINK-35060
1 65693U 25212T   26078.98975472  .00021111  00000-0  70456-3 0  9996
2 65693  53.1589 287.6205 0001147  87.9243 272.1889 15.31032323 28963
STARLINK-35060
1 65693U 25212T   26078.98975472  .00021111  00000-0  70456-3 0  9996
2 65693  53.1589 287.6205 0001147  87.9243 272.1889 15.31032323 28963
